ZACUBE-1 (TSHEPISOSAT)  
1 39417U 13066B   26095.13875085  .00006185  00000+0  48411-3 0  9999
2 39417  97.8146  57.0918 0044992 134.2019 226.2915 15.00595153669775
WNISAT-1                
1 39423U 13066H   26094.98612988  .00001736  00000+0  32211-3 0  9997
2 39423  97.7094 249.3834 0164756 102.4410 259.5282 14.57966062656065
TRITON-1                
1 39427U 13066M   26095.28645381  .00003525  00000+0  42610-3 0  9990
2 39427  97.8283   6.7630 0091876 111.5118 249.5921 14.81355136663290
GOMX-1                  
1 39430U 13066Q   26095.25034567  .00002030  00000+0  31199-3 0  9999
2 39430  97.6535 300.2983 0128048 312.2182  46.8213 14.69206231659203
CUBEBUG-2 (LO-74)       
1 39440U 13066AA  26095.30272076  .00005449  00000+0  51027-3 0  9994
2 39440  97.8853  44.0303 0056639 269.2046  90.2684 14.93272372666113
NEE-02 KRYSAOR          
1 39441U 13066AB  26094.76912739  .00004898  00000+0  54097-3 0  9998
2 39441  97.8852  34.5441 0065273 311.4739  48.0882 14.86351632665291
FUNCUBE-1 (AO-73)       
1 39444U 13066AE  26095.18031921  .00011812  00000+0  74891-3 0  9991
2 39444  97.8239  65.1851 0039093  92.0712 268.4993 15.08440482668653
UWE-3                   
1 39446U 13066AG  26095.14421561  .00005905  00000+0  51308-3 0  9996
2 39446  97.8633  50.7911 0048973 201.3754 158.5422 14.96461292666650
BRITE-CA1 (TORONTO)     
1 40020U 14033L   26095.13074568  .00002072  00000+0  31802-3 0  9990
2 40020  97.9618 225.4599 0079568 150.0256 210.5542 14.72554677631465
DUCHIFAT-1              
1 40021U 14033M   26095.27149655  .00081314  00000+0  12684-2 0  9998
2 40021  98.0571 144.8991 0003099 342.7957  17.3189 15.53558422644398
NANOSATC-BR1            
1 40024U 14033Q   26095.03548801  .00021852  00000+0  77231-3 0  9992
2 40024  98.0800 121.0521 0005286  87.6617 272.5226 15.29205919642792
QB50P1                  
1 40025U 14033R   26094.96602727  .00012738  00000+0  64496-3 0  9994
2 40025  98.1002 101.0367 0010584 113.0107 247.2242 15.17106884641928
QB50P2                  
1 40032U 14033Y   26095.23360420  .00010868  00000+0  59828-3 0  9999
2 40032  98.0756  87.6349 0009352  70.0286 290.1950 15.14200407641624
PERSEUS-M2              
1 40037U 14033AD  26095.26160101  .00003521  00000+0  32478-3 0  9991
2 40037  97.9904  44.3598 0012001 174.5024 185.6330 14.95284085639880
PERSEUS-M1              
1 40039U 14033AF  26095.10620242  .00003045  00000+0  28095-3 0  9994
2 40039  97.9585  38.0792 0011774 173.0287 187.1099 14.95383648639710
POLYITAN-1              
1 40042U 14033AJ  26095.02856692  .00022814  00000+0  76722-3 0  9994
2 40042  98.1015 114.4959 0008706  55.3182 304.8876 15.30791781642396
