[{"OBJECT_NAME":"ZACUBE-1 (TSHEPISOSAT)","OBJECT_ID":"2013-066B","EPOCH":"2026-04-05T03:19:48.073440","MEAN_MOTION":15.00595153,"ECCENTRICITY":0.00449925,"INCLINATION":97.8146,"RA_OF_ASC_NODE":57.0918,"ARG_OF_PERICENTER":134.2019,"MEAN_ANOMALY":226.2915,"EPHEMERIS_TYPE":0,"CLASSIFICATION_TYPE":"U","NORAD_CAT_ID":39417,"ELEMENT_SET_NO":999,"REV_AT_EPOCH":66977,"BSTAR":0.00048411328,"MEAN_MOTION_DOT":6.185e-5,"MEAN_MOTION_DDOT":0},{"OBJECT_NAME":"WNISAT-1","OBJECT_ID":"2013-066H","EPOCH":"2026-04-04T23:40:01.621632","MEAN_MOTION":14.57966062,"ECCENTRICITY":0.01647569,"INCLINATION":97.7094,"RA_OF_ASC_NODE":249.3834,"ARG_OF_PERICENTER":102.441,"MEAN_ANOMALY":259.5282,"EPHEMERIS_TYPE":0,"CLASSIFICATION_TYPE":"U","NORAD_CAT_ID":39423,"ELEMENT_SET_NO":999,"REV_AT_EPOCH":65606,"BSTAR":0.00032210887,"MEAN_MOTION_DOT":1.736e-5,"MEAN_MOTION_DDOT":0},{"OBJECT_NAME":"TRITON-1","OBJECT_ID":"2013-066M","EPOCH":"2026-04-05T06:52:29.609184","MEAN_MOTION":14.81355136,"ECCENTRICITY":0.00918762,"INCLINATION":97.8283,"RA_OF_ASC_NODE":6.763,"ARG_OF_PERICENTER":111.5118,"MEAN_ANOMALY":249.5921,"EPHEMERIS_TYPE":0,"CLASSIFICATION_TYPE":"U","NORAD_CAT_ID":39427,"ELEMENT_SET_NO":999,"REV_AT_EPOCH":66329,"BSTAR":0.00042610311,"MEAN_MOTION_DOT":3.525e-5,"MEAN_MOTION_DDOT":0},{"OBJECT_NAME":"GOMX-1","OBJECT_ID":"2013-066Q","EPOCH":"2026-04-05T06:00:29.865888","MEAN_MOTION":14.69206231,"ECCENTRICITY":0.01280483,"INCLINATION":97.6535,"RA_OF_ASC_NODE":300.2983,"ARG_OF_PERICENTER":312.2182,"MEAN_ANOMALY":46.8213,"EPHEMERIS_TYPE":0,"CLASSIFICATION_TYPE":"U","NORAD_CAT_ID":39430,"ELEMENT_SET_NO":999,"REV_AT_EPOCH":65920,"BSTAR":0.00031199222,"MEAN_MOTION_DOT":2.03e-5,"MEAN_MOTION_DDOT":0},{"OBJECT_NAME":"CUBEBUG-2 (LO-74)","OBJECT_ID":"2013-066AA","EPOCH":"2026-04-05T07:15:55.073664","MEAN_MOTION":14.93272372,"ECCENTRICITY":0.00566394,"INCLINATION":97.8853,"RA_OF_ASC_NODE":44.0303,"ARG_OF_PERICENTER":269.2046,"MEAN_ANOMALY":90.2684,"EPHEMERIS_TYPE":0,"CLASSIFICATION_TYPE":"U","NORAD_CAT_ID":39440,"ELEMENT_SET_NO":999,"REV_AT_EPOCH":66611,"BSTAR":0.00051026847,"MEAN_MOTION_DOT":5.449e-5,"MEAN_MOTION_DDOT":0},{"OBJECT_NAME":"NEE-02 KRYSAOR","OBJECT_ID":"2013-066AB","EPOCH":"2026-04-04T18:27:32.606496","MEAN_MOTION":14.86351632,"ECCENTRICITY":0.00652739,"INCLINATION":97.8852,"RA_OF_ASC_NODE":34.5441,"ARG_OF_PERICENTER":311.4739,"MEAN_ANOMALY":48.0882,"EPHEMERIS_TYPE":0,"CLASSIFICATION_TYPE":"U","NORAD_CAT_ID":39441,"ELEMENT_SET_NO":999,"REV_AT_EPOCH":66529,"BSTAR":0.00054097036,"MEAN_MOTION_DOT":4.898e-5,"MEAN_MOTION_DDOT":0},{"OBJECT_NAME":"FUNCUBE-1 (AO-73)","OBJECT_ID":"2013-066AE","EPOCH":"2026-04-05T04:19:39.579744","MEAN_MOTION":15.08440482,"ECCENTRICITY":0.00390932,"INCLINATION":97.8239,"RA_OF_ASC_NODE":65.1851,"ARG_OF_PERICENTER":92.0712,"MEAN_ANOMALY":268.4993,"EPHEMERIS_TYPE":0,"CLASSIFICATION_TYPE":"U","NORAD_CAT_ID":39444,"ELEMENT_SET_NO":999,"REV_AT_EPOCH":66865,"BSTAR":0.00074890803,"MEAN_MOTION_DOT":0.00011812,"MEAN_MOTION_DDOT":0},{"OBJECT_NAME":"UWE-3","OBJECT_ID":"2013-066AG","EPOCH":"2026-04-05T03:27:40.228704","MEAN_MOTION":14.96461292,"ECCENTRICITY":0.00489732,"INCLINATION":97.8633,"RA_OF_ASC_NODE":50.7911,"ARG_OF_PERICENTER":201.3754,"MEAN_ANOMALY":158.5422,"EPHEMERIS_TYPE":0,"CLASSIFICATION_TYPE":"U","NORAD_CAT_ID":39446,"ELEMENT_SET_NO":999,"REV_AT_EPOCH":66665,"BSTAR":0.00051308131,"MEAN_MOTION_DOT":5.905e-5,"MEAN_MOTION_DDOT":0},{"OBJECT_NAME":"BRITE-CA1 (TORONTO)","OBJECT_ID":"2014-033L","EPOCH":"2026-04-05T03:08:16.426752","MEAN_MOTION":14.72554677,"ECCENTRICITY":0.00795687,"INCLINATION":97.9618,"RA_OF_ASC_NODE":225.4599,"ARG_OF_PERICENTER":150.0256,"MEAN_ANOMALY":210.5542,"EPHEMERIS_TYPE":0,"CLASSIFICATION_TYPE":"U","NORAD_CAT_ID":40020,"ELEMENT_SET_NO":999,"REV_AT_EPOCH":63146,"BSTAR":0.0003180207,"MEAN_MOTION_DOT":2.072e-5,"MEAN_MOTION_DDOT":0},{"OBJECT_NAME":"DUCHIFAT-1","OBJECT_ID":"2014-033M","EPOCH":"2026-04-05T06:30:57.301920","MEAN_MOTION":15.53558422,"ECCENTRICITY":0.00030998,"INCLINATION":98.0571,"RA_OF_ASC_NODE":144.8991,"ARG_OF_PERICENTER":342.7957,"MEAN_ANOMALY":17.3189,"EPHEMERIS_TYPE":0,"CLASSIFICATION_TYPE":"U","NORAD_CAT_ID":40021,"ELEMENT_SET_NO":999,"REV_AT_EPOCH":64439,"BSTAR":0.0012683565,"MEAN_MOTION_DOT":0.00081314,"MEAN_MOTION_DDOT":0},{"OBJECT_NAME":"NANOSATC-BR1","OBJECT_ID":"2014-033Q","EPOCH":"2026-04-05T00:51:06.164064","MEAN_MOTION":15.29205919,"ECCENTRICITY":0.00052869,"INCLINATION":98.08,"RA_OF_ASC_NODE":121.0521,"ARG_OF_PERICENTER":87.6617,"MEAN_ANOMALY":272.5226,"EPHEMERIS_TYPE":0,"CLASSIFICATION_TYPE":"U","NORAD_CAT_ID":40024,"ELEMENT_SET_NO":999,"REV_AT_EPOCH":64279,"BSTAR":0.00077230512,"MEAN_MOTION_DOT":0.00021852,"MEAN_MOTION_DDOT":0},{"OBJECT_NAME":"QB50P1","OBJECT_ID":"2014-033R","EPOCH":"2026-04-04T23:11:04.756128","MEAN_MOTION":15.17106884,"ECCENTRICITY":0.00105849,"INCLINATION":98.1002,"RA_OF_ASC_NODE":101.0367,"ARG_OF_PERICENTER":113.0107,"MEAN_ANOMALY":247.2242,"EPHEMERIS_TYPE":0,"CLASSIFICATION_TYPE":"U","NORAD_CAT_ID":40025,"ELEMENT_SET_NO":999,"REV_AT_EPOCH":64192,"BSTAR":0.00064495839,"MEAN_MOTION_DOT":0.00012738,"MEAN_MOTION_DDOT":0},{"OBJECT_NAME":"QB50P2","OBJECT_ID":"2014-033Y","EPOCH":"2026-04-05T05:36:23.402880","MEAN_MOTION":15.14200407,"ECCENTRICITY":0.00093527,"INCLINATION":98.0756,"RA_OF_ASC_NODE":87.6349,"ARG_OF_PERICENTER":70.0286,"MEAN_ANOMALY":290.195,"EPHEMERIS_TYPE":0,"CLASSIFICATION_TYPE":"U","NORAD_CAT_ID":40032,"ELEMENT_SET_NO":999,"REV_AT_EPOCH":64162,"BSTAR":0.00059827911,"MEAN_MOTION_DOT":0.00010868,"MEAN_MOTION_DDOT":0},{"OBJECT_NAME":"PERSEUS-M2","OBJECT_ID":"2014-033AD","EPOCH":"2026-04-05T06:16:42.327264","MEAN_MOTION":14.95284085,"ECCENTRICITY":0.00120013,"INCLINATION":97.9904,"RA_OF_ASC_NODE":44.3598,"ARG_OF_PERICENTER":174.5024,"MEAN_ANOMALY":185.633,"EPHEMERIS_TYPE":0,"CLASSIFICATION_TYPE":"U","NORAD_CAT_ID":40037,"ELEMENT_SET_NO":999,"REV_AT_EPOCH":63988,"BSTAR":0.00032478135,"MEAN_MOTION_DOT":3.521e-5,"MEAN_MOTION_DDOT":0},{"OBJECT_NAME":"PERSEUS-M1","OBJECT_ID":"2014-033AF","EPOCH":"2026-04-05T02:32:55.889088","MEAN_MOTION":14.95383648,"ECCENTRICITY":0.00117747,"INCLINATION":97.9585,"RA_OF_ASC_NODE":38.0792,"ARG_OF_PERICENTER":173.0287,"MEAN_ANOMALY":187.1099,"EPHEMERIS_TYPE":0,"CLASSIFICATION_TYPE":"U","NORAD_CAT_ID":40039,"ELEMENT_SET_NO":999,"REV_AT_EPOCH":63971,"BSTAR":0.00028095369,"MEAN_MOTION_DOT":3.045e-5,"MEAN_MOTION_DDOT":0},{"OBJECT_NAME":"POLYITAN-1","OBJECT_ID":"2014-033AJ","EPOCH":"2026-04-05T00:41:08.181888","MEAN_MOTION":15.30791781,"ECCENTRICITY":0.00087065,"INCLINATION":98.1015,"RA_OF_ASC_NODE":114.4959,"ARG_OF_PERICENTER":55.3182,"MEAN_ANOMALY":304.8876,"EPHEMERIS_TYPE":0,"CLASSIFICATION_TYPE":"U","NORAD_CAT_ID":40042,"ELEMENT_SET_NO":999,"REV_AT_EPOCH":64239,"BSTAR":0.00076721893,"MEAN_MOTION_DOT":0.00022814,"MEAN_MOTION_DDOT":0}]
